SENTINEL-2A             
1 40697U 15028A   20149.26352894  .00000001  00000-0  16871-4 0  9995
2 40697  98.5692 223.7879 0001181  87.6308 272.5014 14.30816832257571
AVUM R/B                
1 40698U 15028B   20148.79359321  .00000347  00000-0  19447-4 0  9990
2 40698  98.6413  81.2215 0256680  85.4678 277.5812 14.97724955269185
